{
  "type": "FeatureCollection",
  "features": [
    {
      "type": "Feature",
      "properties": {
        "name": "Лицензионный участок 1",
        "kind": "licence-area"
      },
      "geometry": {
        "type": "Polygon",
        "coordinates": [
          [
            [
              109.904000,
              60.509000
            ],
            [
              108.938000,
              60.460613
            ],
            [
              108.930000,
              59.773516
            ],
            [
              109.082000,
              59.757388
            ],
            [
              109.028000,
              59.570291
            ],
            [
              109.848000,
              59.509000
            ],
            [
              109.856000,
              60.015452
            ],
            [
              109.930000,
              60.105774
            ],
            [
              109.856000,
              60.231581
            ],
            [
              109.904000,
              60.509000
            ]
          ]
        ]
      }
    },
    {
      "type": "Feature",
      "properties": {
        "name": "Лицензионный участок 2",
        "kind": "licence-area"
      },
      "geometry": {
        "type": "Polygon",
        "coordinates": [
          [
            [
              108.930000,
              60.454055
            ],
            [
              108.932070,
              59.851032
            ],
            [
              109.373064,
              59.853780
            ],
            [
              109.517992,
              59.780977
            ],
            [
              109.489006,
              59.509000
            ],
            [
              109.553188,
              59.524109
            ],
            [
              109.573893,
              59.721912
            ],
            [
              109.766439,
              59.951307
            ],
            [
              109.754017,
              60.041966
            ],
            [
              109.930000,
              60.165593
            ],
            [
              109.905156,
              60.290593
            ],
            [
              109.499358,
              60.416966
            ],
            [
              109.408261,
              60.290593
            ],
            [
              109.248841,
              60.509000
            ],
            [
              108.930000,
              60.454055
            ]
          ]
        ]
      }
    },
    {
      "type": "Feature",
      "properties": {
        "name": "Лицензионный участок 3",
        "kind": "licence-area"
      },
      "geometry": {
        "type": "Polygon",
        "coordinates": [
          [
            [
              109.930000,
              60.300667
            ],
            [
              109.270527,
              60.509000
            ],
            [
              109.157817,
              60.358536
            ],
            [
              109.177002,
              60.210388
            ],
            [
              109.097866,
              60.147889
            ],
            [
              109.033118,
              59.927982
            ],
            [
              108.961175,
              59.860852
            ],
            [
              108.930000,
              59.509000
            ],
            [
              109.421607,
              59.631685
            ],
            [
              109.930000,
              60.300667
            ]
          ]
        ]
      }
    }
  ]
}